EOS-6 (OCEANSAT-3)      
1 54361U 22158A   26087.88058174  .00000378  00000+0  11592-3 0  9999
2 54361  98.3482 187.1639 0001342 144.0658 216.0625 14.46974769176225
DONGPO 09               
1 54685U 22167D   26087.85998873  .00015018  00000+0  45168-3 0  9997
2 54685  97.6826 255.4219 0003345  68.8235 291.3364 15.34484235183125
DONGPO 08               
1 54686U 22167E   26087.83583671  .00013558  00000+0  44031-3 0  9997
2 54686  97.6784 252.9445 0009630  94.2602 265.9740 15.32019420183017
2022-167F               
1 54687U 22167F   26087.86968774  .00102007  00000+0  78329-3 0  9997
2 54687  97.6213 267.3103 0002202 303.8292  56.2760 15.71746480184142
DONGPO 10               
1 54689U 22167H   26087.88303993  .00013810  00000+0  43860-3 0  9992
2 54689  97.6869 254.7573 0005674  51.0496 309.1250 15.32760891183058
JILIN-1 GAOFEN 03D48    
1 54695U 22167P   26087.85362794  .00014491  00000+0  45008-3 0  9992
2 54695  97.6800 254.0842 0007160  53.3110 306.8788 15.33450994183075
STAR VIBE               
1 55009U 23001A   26087.80727757  .00017809  00000+0  44216-3 0  9995
2 55009  97.3256 152.0476 0006968  56.7719 303.4194 15.40373381179840
BRO-8                   
1 55011U 23001C   26087.82412866  .00036553  00000+0  79108-3 0  9997
2 55011  97.3307 152.1026 0007003  65.8798 294.3183 15.44353791179787
CONNECTA T1.2           
1 55012U 23001D   26087.76211565  .00043687  00000+0  89879-3 0  9996
2 55012  97.3356 157.3108 0006734  42.7228 317.4544 15.45810163180100
BIRKELAND               
1 55015U 23001G   26087.86565192  .00011273  00000+0  29775-3 0  9993
2 55015  97.3415 155.6925 0007701  47.7464 312.4433 15.38580299179992
ION SCV-008             
1 55051U 23001AU  26087.88878013  .00008435  00000+0  31533-3 0  9995
2 55051  97.5669 182.9474 0013768 297.8591  62.1252 15.27517072179070
ION SCV-007             
1 55060U 23001BD  26087.74380773  .00000516  00000+0  79507-4 0  9997
2 55060  97.9083 152.3302 0011257 231.7359 128.2840 14.77474352174377
HUYGENS                 
1 55093U 23001CN  26087.86571847  .00011737  00000+0  30971-3 0  9998
2 55093  97.3325 155.0242 0009915  23.8944 336.2760 15.38580462180015
SHARJAHSAT-1            
1 55104U 23001CZ  26087.87146280  .00023193  00000+0  47448-3 0  9997
2 55104  97.3253 155.6741 0006706  49.1068 311.0762 15.46103731180079
HORUS 1                 
1 55690U 23025A   26087.88801057  .00008068  00000+0  34201-3 0  9991
2 55690  97.3508 164.1505 0002369 124.3162 235.8300 15.23388426171822
HORUS 2                 
1 55844U 23032A   26087.85647860  .00007435  00000+0  31439-3 0  9994
2 55844  97.3576 164.8530 0001941  96.1622 263.9836 15.23498556169251
GLOBAL-19               
1 55982U 23041B   26087.65887445  .00019702  00000+0  50554-3 0  9999
2 55982  42.0025 311.7233 0002519 229.8111 130.2508 15.38914029169529
