[{"OBJECT_NAME":"EOS-6 (OCEANSAT-3)","OBJECT_ID":"2022-158A","EPOCH":"2026-03-28T21:08:02.262336","MEAN_MOTION":14.46974769,"ECCENTRICITY":0.0001342,"INCLINATION":98.3482,"RA_OF_ASC_NODE":187.1639,"ARG_OF_PERICENTER":144.0658,"MEAN_ANOMALY":216.0625,"EPHEMERIS_TYPE":0,"CLASSIFICATION_TYPE":"U","NORAD_CAT_ID":54361,"ELEMENT_SET_NO":999,"REV_AT_EPOCH":17622,"BSTAR":0.00011592,"MEAN_MOTION_DOT":3.78e-6,"MEAN_MOTION_DDOT":0},{"OBJECT_NAME":"DONGPO 09","OBJECT_ID":"2022-167D","EPOCH":"2026-03-28T20:38:23.026272","MEAN_MOTION":15.34484235,"ECCENTRICITY":0.0003345,"INCLINATION":97.6826,"RA_OF_ASC_NODE":255.4219,"ARG_OF_PERICENTER":68.8235,"MEAN_ANOMALY":291.3364,"EPHEMERIS_TYPE":0,"CLASSIFICATION_TYPE":"U","NORAD_CAT_ID":54685,"ELEMENT_SET_NO":999,"REV_AT_EPOCH":18312,"BSTAR":0.00045168,"MEAN_MOTION_DOT":0.00015018,"MEAN_MOTION_DDOT":0},{"OBJECT_NAME":"DONGPO 08","OBJECT_ID":"2022-167E","EPOCH":"2026-03-28T20:03:36.291744","MEAN_MOTION":15.3201942,"ECCENTRICITY":0.000963,"INCLINATION":97.6784,"RA_OF_ASC_NODE":252.9445,"ARG_OF_PERICENTER":94.2602,"MEAN_ANOMALY":265.974,"EPHEMERIS_TYPE":0,"CLASSIFICATION_TYPE":"U","NORAD_CAT_ID":54686,"ELEMENT_SET_NO":999,"REV_AT_EPOCH":18301,"BSTAR":0.00044031,"MEAN_MOTION_DOT":0.00013558,"MEAN_MOTION_DDOT":0},{"OBJECT_NAME":"2022-167F","OBJECT_ID":"2022-167F","EPOCH":"2026-03-28T20:52:21.020736","MEAN_MOTION":15.7174648,"ECCENTRICITY":0.0002202,"INCLINATION":97.6213,"RA_OF_ASC_NODE":267.3103,"ARG_OF_PERICENTER":303.8292,"MEAN_ANOMALY":56.276,"EPHEMERIS_TYPE":0,"CLASSIFICATION_TYPE":"U","NORAD_CAT_ID":54687,"ELEMENT_SET_NO":999,"REV_AT_EPOCH":18414,"BSTAR":0.00078329,"MEAN_MOTION_DOT":0.00102007,"MEAN_MOTION_DDOT":0},{"OBJECT_NAME":"DONGPO 10","OBJECT_ID":"2022-167H","EPOCH":"2026-03-28T21:11:34.649952","MEAN_MOTION":15.32760891,"ECCENTRICITY":0.0005674,"INCLINATION":97.6869,"RA_OF_ASC_NODE":254.7573,"ARG_OF_PERICENTER":51.0496,"MEAN_ANOMALY":309.125,"EPHEMERIS_TYPE":0,"CLASSIFICATION_TYPE":"U","NORAD_CAT_ID":54689,"ELEMENT_SET_NO":999,"REV_AT_EPOCH":18305,"BSTAR":0.0004386,"MEAN_MOTION_DOT":0.0001381,"MEAN_MOTION_DDOT":0},{"OBJECT_NAME":"JILIN-1 GAOFEN 03D48","OBJECT_ID":"2022-167P","EPOCH":"2026-03-28T20:29:13.454016","MEAN_MOTION":15.33450994,"ECCENTRICITY":0.000716,"INCLINATION":97.68,"RA_OF_ASC_NODE":254.0842,"ARG_OF_PERICENTER":53.311,"MEAN_ANOMALY":306.8788,"EPHEMERIS_TYPE":0,"CLASSIFICATION_TYPE":"U","NORAD_CAT_ID":54695,"ELEMENT_SET_NO":999,"REV_AT_EPOCH":18307,"BSTAR":0.00045008,"MEAN_MOTION_DOT":0.00014491,"MEAN_MOTION_DDOT":0},{"OBJECT_NAME":"STAR VIBE","OBJECT_ID":"2023-001A","EPOCH":"2026-03-28T19:22:28.782048","MEAN_MOTION":15.40373381,"ECCENTRICITY":0.0006968,"INCLINATION":97.3256,"RA_OF_ASC_NODE":152.0476,"ARG_OF_PERICENTER":56.7719,"MEAN_ANOMALY":303.4194,"EPHEMERIS_TYPE":0,"CLASSIFICATION_TYPE":"U","NORAD_CAT_ID":55009,"ELEMENT_SET_NO":999,"REV_AT_EPOCH":17984,"BSTAR":0.00044216,"MEAN_MOTION_DOT":0.00017809,"MEAN_MOTION_DDOT":0},{"OBJECT_NAME":"BRO-8","OBJECT_ID":"2023-001C","EPOCH":"2026-03-28T19:46:44.716224","MEAN_MOTION":15.44353791,"ECCENTRICITY":0.0007003,"INCLINATION":97.3307,"RA_OF_ASC_NODE":152.1026,"ARG_OF_PERICENTER":65.8798,"MEAN_ANOMALY":294.3183,"EPHEMERIS_TYPE":0,"CLASSIFICATION_TYPE":"U","NORAD_CAT_ID":55011,"ELEMENT_SET_NO":999,"REV_AT_EPOCH":17978,"BSTAR":0.00079108,"MEAN_MOTION_DOT":0.00036553,"MEAN_MOTION_DDOT":0},{"OBJECT_NAME":"CONNECTA T1.2","OBJECT_ID":"2023-001D","EPOCH":"2026-03-28T18:17:26.792160","MEAN_MOTION":15.45810163,"ECCENTRICITY":0.0006734,"INCLINATION":97.3356,"RA_OF_ASC_NODE":157.3108,"ARG_OF_PERICENTER":42.7228,"MEAN_ANOMALY":317.4544,"EPHEMERIS_TYPE":0,"CLASSIFICATION_TYPE":"U","NORAD_CAT_ID":55012,"ELEMENT_SET_NO":999,"REV_AT_EPOCH":18010,"BSTAR":0.00089879,"MEAN_MOTION_DOT":0.00043687,"MEAN_MOTION_DDOT":0},{"OBJECT_NAME":"BIRKELAND","OBJECT_ID":"2023-001G","EPOCH":"2026-03-28T20:46:32.325888","MEAN_MOTION":15.38580299,"ECCENTRICITY":0.0007701,"INCLINATION":97.3415,"RA_OF_ASC_NODE":155.6925,"ARG_OF_PERICENTER":47.7464,"MEAN_ANOMALY":312.4433,"EPHEMERIS_TYPE":0,"CLASSIFICATION_TYPE":"U","NORAD_CAT_ID":55015,"ELEMENT_SET_NO":999,"REV_AT_EPOCH":17999,"BSTAR":0.00029775,"MEAN_MOTION_DOT":0.00011273,"MEAN_MOTION_DDOT":0},{"OBJECT_NAME":"ION SCV-008","OBJECT_ID":"2023-001AU","EPOCH":"2026-03-28T21:19:50.603232","MEAN_MOTION":15.27517072,"ECCENTRICITY":0.0013768,"INCLINATION":97.5669,"RA_OF_ASC_NODE":182.9474,"ARG_OF_PERICENTER":297.8591,"MEAN_ANOMALY":62.1252,"EPHEMERIS_TYPE":0,"CLASSIFICATION_TYPE":"U","NORAD_CAT_ID":55051,"ELEMENT_SET_NO":999,"REV_AT_EPOCH":17907,"BSTAR":0.00031533,"MEAN_MOTION_DOT":8.435e-5,"MEAN_MOTION_DDOT":0},{"OBJECT_NAME":"ION SCV-007","OBJECT_ID":"2023-001BD","EPOCH":"2026-03-28T17:51:04.987872","MEAN_MOTION":14.77474352,"ECCENTRICITY":0.0011257,"INCLINATION":97.9083,"RA_OF_ASC_NODE":152.3302,"ARG_OF_PERICENTER":231.7359,"MEAN_ANOMALY":128.284,"EPHEMERIS_TYPE":0,"CLASSIFICATION_TYPE":"U","NORAD_CAT_ID":55060,"ELEMENT_SET_NO":999,"REV_AT_EPOCH":17437,"BSTAR":7.9507e-5,"MEAN_MOTION_DOT":5.16e-6,"MEAN_MOTION_DDOT":0},{"OBJECT_NAME":"HUYGENS","OBJECT_ID":"2023-001CN","EPOCH":"2026-03-28T20:46:38.075808","MEAN_MOTION":15.38580462,"ECCENTRICITY":0.0009915,"INCLINATION":97.3325,"RA_OF_ASC_NODE":155.0242,"ARG_OF_PERICENTER":23.8944,"MEAN_ANOMALY":336.276,"EPHEMERIS_TYPE":0,"CLASSIFICATION_TYPE":"U","NORAD_CAT_ID":55093,"ELEMENT_SET_NO":999,"REV_AT_EPOCH":18001,"BSTAR":0.00030971,"MEAN_MOTION_DOT":0.00011737,"MEAN_MOTION_DDOT":0},{"OBJECT_NAME":"SHARJAHSAT-1","OBJECT_ID":"2023-001CZ","EPOCH":"2026-03-28T20:54:54.385920","MEAN_MOTION":15.46103731,"ECCENTRICITY":0.0006706,"INCLINATION":97.3253,"RA_OF_ASC_NODE":155.6741,"ARG_OF_PERICENTER":49.1068,"MEAN_ANOMALY":311.0762,"EPHEMERIS_TYPE":0,"CLASSIFICATION_TYPE":"U","NORAD_CAT_ID":55104,"ELEMENT_SET_NO":999,"REV_AT_EPOCH":18007,"BSTAR":0.00047448,"MEAN_MOTION_DOT":0.00023193,"MEAN_MOTION_DDOT":0},{"OBJECT_NAME":"HORUS 1","OBJECT_ID":"2023-025A","EPOCH":"2026-03-28T21:18:44.113248","MEAN_MOTION":15.23388426,"ECCENTRICITY":0.0002369,"INCLINATION":97.3508,"RA_OF_ASC_NODE":164.1505,"ARG_OF_PERICENTER":124.3162,"MEAN_ANOMALY":235.83,"EPHEMERIS_TYPE":0,"CLASSIFICATION_TYPE":"U","NORAD_CAT_ID":55690,"ELEMENT_SET_NO":999,"REV_AT_EPOCH":17182,"BSTAR":0.00034201,"MEAN_MOTION_DOT":8.068e-5,"MEAN_MOTION_DDOT":0},{"OBJECT_NAME":"HORUS 2","OBJECT_ID":"2023-032A","EPOCH":"2026-03-28T20:33:19.751040","MEAN_MOTION":15.23498556,"ECCENTRICITY":0.0001941,"INCLINATION":97.3576,"RA_OF_ASC_NODE":164.853,"ARG_OF_PERICENTER":96.1622,"MEAN_ANOMALY":263.9836,"EPHEMERIS_TYPE":0,"CLASSIFICATION_TYPE":"U","NORAD_CAT_ID":55844,"ELEMENT_SET_NO":999,"REV_AT_EPOCH":16925,"BSTAR":0.00031439,"MEAN_MOTION_DOT":7.435e-5,"MEAN_MOTION_DDOT":0},{"OBJECT_NAME":"GLOBAL-19","OBJECT_ID":"2023-041B","EPOCH":"2026-03-28T15:48:46.752480","MEAN_MOTION":15.38914029,"ECCENTRICITY":0.0002519,"INCLINATION":42.0025,"RA_OF_ASC_NODE":311.7233,"ARG_OF_PERICENTER":229.8111,"MEAN_ANOMALY":130.2508,"EPHEMERIS_TYPE":0,"CLASSIFICATION_TYPE":"U","NORAD_CAT_ID":55982,"ELEMENT_SET_NO":999,"REV_AT_EPOCH":16952,"BSTAR":0.00050554,"MEAN_MOTION_DOT":0.00019702,"MEAN_MOTION_DDOT":0}]
